{"type": "FeatureCollection", "features": [ {"type": "Feature", "properties": {"norad_id": 66569, "name": "STARLINK-35835", "group": "last-30-days", "lat": -39.74980433870064, "lon": 72.09135737011546, "alt_km": 417.1029665182723, "timestamp": "2025-12-10T07:43:53.549414+00:00", "meta": {"OBJECT_NAME": "STARLINK-35835", "OBJECT_ID": "2025-268N", "EPOCH": "2025-12-09T20:00:01.999008", "MEAN_MOTION": 15.50566468, "ECCENTRICITY": 0.0001825, "INCLINATION": 43.0004, "RA_OF_ASC_NODE": 138.14, "ARG_OF_PERICENTER": 276.3582, "MEAN_ANOMALY": 162.2451, "EPHEMERIS_TYPE": 0, "CLASSIFICATION_TYPE": "U", "NORAD_CAT_ID": 66569, "ELEMENT_SET_NO": 999, "REV_AT_EPOCH": 420, "BSTAR": -0.00010844, "MEAN_MOTION_DOT": -6.695e-05, "MEAN_MOTION_DDOT": 0}, "tle": {"line1": "1 66569U 25268N   25343.83335647 -.00006695  00000+0 -10844-3 0  9998", "line2": "2 66569  43.0004 138.1400 0001825 276.3582 162.2451 15.50566468  4204"}}, "geometry": {"type": "Point", "coordinates": [72.09135737011546, -39.74980433870064]}}, {"type": "Feature", "properties": {"norad_id": 66570, "name": "STARLINK-35834", "group": "last-30-days", "lat": -39.1407374912836, "lon": 74.42396478149662, "alt_km": 417.36583571265146, "timestamp": "2025-12-10T07:43:53.549424+00:00", "meta": {"OBJECT_NAME": "STARLINK-35834", "OBJECT_ID": "2025-268P", "EPOCH": "2025-12-09T20:00:01.999008", "MEAN_MOTION": 15.50612365, "ECCENTRICITY": 0.0001594, "INCLINATION": 43.0007, "RA_OF_ASC_NODE": 138.1351, "ARG_OF_PERICENTER": 278.0843, "MEAN_ANOMALY": 162.4299, "EPHEMERIS_TYPE": 0, "CLASSIFICATION_TYPE": "U", "NORAD_CAT_ID": 66570, "ELEMENT_SET_NO": 999, "REV_AT_EPOCH": 420, "BSTAR": -0.0017647, "MEAN_MOTION_DOT": -0.00102646, "MEAN_MOTION_DDOT": 0}, "tle": {"line1": "1 66570U 25268P   25343.83335647 -.00102646  00000+0 -17647-2 0  9990", "line2": "2 66570  43.0007 138.1351 0001594 278.0843 162.4299 15.50612365  4206"}}, "geometry": {"type": "Point", "coordinates": [74.42396478149662, -39.1407374912836]}}, {"type": "Feature", "properties": {"norad_id": 66571, "name": "STARLINK-35836", "group": "last-30-days", "lat": -38.478293776760495, "lon": 76.73889325985951, "alt_km": 417.1123952869384, "timestamp": "2025-12-10T07:43:53.549434+00:00", "meta": {"OBJECT_NAME": "STARLINK-35836", "OBJECT_ID": "2025-268Q", "EPOCH": "2025-12-09T20:00:01.999008", "MEAN_MOTION": 15.50597129, "ECCENTRICITY": 0.0001825, "INCLINATION": 43.0006, "RA_OF_ASC_NODE": 138.1303, "ARG_OF_PERICENTER": 276.7034, "MEAN_ANOMALY": 165.7241, "EPHEMERIS_TYPE": 0, "CLASSIFICATION_TYPE": "U", "NORAD_CAT_ID": 66571, "ELEMENT_SET_NO": 999, "REV_AT_EPOCH": 420, "BSTAR": -0.00097576, "MEAN_MOTION_DOT": -0.00057207, "MEAN_MOTION_DDOT": 0}, "tle": {"line1": "1 66571U 25268Q   25343.83335647 -.00057207  00000+0 -97576-3 0  9993", "line2": "2 66571  43.0006 138.1303 0001825 276.7034 165.7241 15.50597129  4200"}}, "geometry": {"type": "Point", "coordinates": [76.73889325985951, -38.478293776760495]}}, {"type": "Feature", "properties": {"norad_id": 66572, "name": "STARLINK-35870", "group": "last-30-days", "lat": -37.775211624902944, "lon": 78.99874981453844, "alt_km": 417.09769199894254, "timestamp": "2025-12-10T07:43:53.549446+00:00", "meta": {"OBJECT_NAME": "STARLINK-35870", "OBJECT_ID": "2025-268R", "EPOCH": "2025-12-09T20:00:01.999008", "MEAN_MOTION": 15.50584696, "ECCENTRICITY": 0.0001728, "INCLINATION": 43.0007, "RA_OF_ASC_NODE": 138.1266, "ARG_OF_PERICENTER": 280.5141, "MEAN_ANOMALY": 163.8309, "EPHEMERIS_TYPE": 0, "CLASSIFICATION_TYPE": "U", "NORAD_CAT_ID": 66572, "ELEMENT_SET_NO": 999, "REV_AT_EPOCH": 420, "BSTAR": -0.00053116, "MEAN_MOTION_DOT": -0.00031384, "MEAN_MOTION_DDOT": 0}, "tle": {"line1": "1 66572U 25268R   25343.83335647 -.00031384  00000+0 -53116-3 0  9994", "line2": "2 66572  43.0007 138.1266 0001728 280.5141 163.8309 15.50584696  4203"}}, "geometry": {"type": "Point", "coordinates": [78.99874981453844, -37.775211624902944]}}, {"type": "Feature", "properties": {"norad_id": 66573, "name": "STARLINK-35650", "group": "last-30-days", "lat": -37.02733055404476, "lon": 81.21796815815568, "alt_km": 416.59420589904585, "timestamp": "2025-12-10T07:43:53.549456+00:00", "meta": {"OBJECT_NAME": "STARLINK-35650", "OBJECT_ID": "2025-268S", "EPOCH": "2025-12-09T20:00:01.999008", "MEAN_MOTION": 15.50586027, "ECCENTRICITY": 0.0002387, "INCLINATION": 43.0003, "RA_OF_ASC_NODE": 138.1209, "ARG_OF_PERICENTER": 287.9959, "MEAN_ANOMALY": 158.2698, "EPHEMERIS_TYPE": 0, "CLASSIFICATION_TYPE": "U", "NORAD_CAT_ID": 66573, "ELEMENT_SET_NO": 999, "REV_AT_EPOCH": 420, "BSTAR": -0.00053631, "MEAN_MOTION_DOT": -0.00031688, "MEAN_MOTION_DDOT": 0}, "tle": {"line1": "1 66573U 25268S   25343.83335647 -.00031688  00000+0 -53631-3 0  9994", "line2": "2 66573  43.0003 138.1209 0002387 287.9959 158.2698 15.50586027  4206"}}, "geometry": {"type": "Point", "coordinates": [81.21796815815568, -37.02733055404476]}}, {"type": "Feature", "properties": {"norad_id": 66574, "name": "STARLINK-35812", "group": "last-30-days", "lat": -36.24261376700695, "lon": 83.38339758701632, "alt_km": 416.8487279617166, "timestamp": "2025-12-10T07:43:53.549468+00:00", "meta": {"OBJECT_NAME": "STARLINK-35812", "OBJECT_ID": "2025-268T", "EPOCH": "2025-12-09T20:00:01.999008", "MEAN_MOTION": 15.50598341, "ECCENTRICITY": 0.0002124, "INCLINATION": 43.0002, "RA_OF_ASC_NODE": 138.1155, "ARG_OF_PERICENTER": 274.7694, "MEAN_ANOMALY": 173.4, "EPHEMERIS_TYPE": 0, "CLASSIFICATION_TYPE": "U", "NORAD_CAT_ID": 66574, "ELEMENT_SET_NO": 999, "REV_AT_EPOCH": 420, "BSTAR": -0.00089676, "MEAN_MOTION_DOT": -0.00052637, "MEAN_MOTION_DDOT": 0}, "tle": {"line1": "1 66574U 25268T   25343.83335647 -.00052637  00000+0 -89676-3 0  9990", "line2": "2 66574  43.0002 138.1155 0002124 274.7694 173.4000 15.50598341  4203"}}, "geometry": {"type": "Point", "coordinates": [83.38339758701632, -36.24261376700695]}}, {"type": "Feature", "properties": {"norad_id": 66575, "name": "STARLINK-35810", "group": "last-30-days", "lat": -35.415637156469096, "lon": 85.51527591084297, "alt_km": 416.87158778554567, "timestamp": "2025-12-10T07:43:53.549480+00:00", "meta": {"OBJECT_NAME": "STARLINK-35810", "OBJECT_ID": "2025-268U", "EPOCH": "2025-12-09T20:00:01.999008", "MEAN_MOTION": 15.50603947, "ECCENTRICITY": 0.0002014, "INCLINATION": 43.0002, "RA_OF_ASC_NODE": 138.1109, "ARG_OF_PERICENTER": 278.0881, "MEAN_ANOMALY": 172.0022, "EPHEMERIS_TYPE": 0, "CLASSIFICATION_TYPE": "U", "NORAD_CAT_ID": 66575, "ELEMENT_SET_NO": 999, "REV_AT_EPOCH": 420, "BSTAR": -0.0010515, "MEAN_MOTION_DOT": -0.00061601, "MEAN_MOTION_DDOT": 0}, "tle": {"line1": "1 66575U 25268U   25343.83335647 -.00061601  00000+0 -10515-2 0  9997", "line2": "2 66575  43.0002 138.1109 0002014 278.0881 172.0022 15.50603947  4204"}}, "geometry": {"type": "Point", "coordinates": [85.51527591084297, -35.415637156469096]}}, {"type": "Feature", "properties": {"norad_id": 66576, "name": "STARLINK-35814", "group": "last-30-days", "lat": -34.553053935841476, "lon": 87.60050190295078, "alt_km": 416.9368090184553, "timestamp": "2025-12-10T07:43:53.549492+00:00", "meta": {"OBJECT_NAME": "STARLINK-35814", "OBJECT_ID": "2025-268V", "EPOCH": "2025-12-09T20:00:01.999008", "MEAN_MOTION": 15.50599061, "ECCENTRICITY": 0.0002002, "INCLINATION": 43.0006, "RA_OF_ASC_NODE": 138.106, "ARG_OF_PERICENTER": 270.7796, "MEAN_ANOMALY": 181.2348, "EPHEMERIS_TYPE": 0, "CLASSIFICATION_TYPE": "U", "NORAD_CAT_ID": 66576, "ELEMENT_SET_NO": 999, "REV_AT_EPOCH": 420, "BSTAR": -0.0010294, "MEAN_MOTION_DOT": -0.00060317, "MEAN_MOTION_DDOT": 0}, "tle": {"line1": "1 66576U 25268V   25343.83335647 -.00060317  00000+0 -10294-2 0  9995", "line2": "2 66576  43.0006 138.1060 0002002 270.7796 181.2348 15.50599061  4200"}}, "geometry": {"type": "Point", "coordinates": [87.60050190295078, -34.553053935841476]}}, {"type": "Feature", "properties": {"norad_id": 66577, "name": "STARLINK-35815", "group": "last-30-days", "lat": -33.65595919063701, "lon": 89.64059885830822, "alt_km": 416.853149968103, "timestamp": "2025-12-10T07:43:53.549502+00:00", "meta": {"OBJECT_NAME": "STARLINK-35815", "OBJECT_ID": "2025-268W", "EPOCH": "2025-12-09T20:00:01.999008", "MEAN_MOTION": 15.50573012, "ECCENTRICITY": 0.0001948, "INCLINATION": 43.0006, "RA_OF_ASC_NODE": 138.1014, "ARG_OF_PERICENTER": 273.4655, "MEAN_ANOMALY": 180.4728, "EPHEMERIS_TYPE": 0, "CLASSIFICATION_TYPE": "U", "NORAD_CAT_ID": 66577, "ELEMENT_SET_NO": 999, "REV_AT_EPOCH": 420, "BSTAR": -0.00021564, "MEAN_MOTION_DOT": -0.00012969, "MEAN_MOTION_DDOT": 0}, "tle": {"line1": "1 66577U 25268W   25343.83335647 -.00012969  00000+0 -21564-3 0  9999", "line2": "2 66577  43.0006 138.1014 0001948 273.4655 180.4728 15.50573012  4203"}}, "geometry": {"type": "Point", "coordinates": [89.64059885830822, -33.65595919063701]}}, {"type": "Feature", "properties": {"norad_id": 66578, "name": "STARLINK-35743", "group": "last-30-days", "lat": -32.7273590746854, "lon": 91.63466335157912, "alt_km": 416.90658799262565, "timestamp": "2025-12-10T07:43:53.549512+00:00", "meta": {"OBJECT_NAME": "STARLINK-35743", "OBJECT_ID": "2025-268X", "EPOCH": "2025-12-09T20:00:01.999008", "MEAN_MOTION": 15.50608431, "ECCENTRICITY": 0.0001845, "INCLINATION": 43.0007, "RA_OF_ASC_NODE": 138.0966, "ARG_OF_PERICENTER": 276.9434, "MEAN_ANOMALY": 178.9001, "EPHEMERIS_TYPE": 0, "CLASSIFICATION_TYPE": "U", "NORAD_CAT_ID": 66578, "ELEMENT_SET_NO": 999, "REV_AT_EPOCH": 420, "BSTAR": -0.001228, "MEAN_MOTION_DOT": -0.00071805, "MEAN_MOTION_DDOT": 0}, "tle": {"line1": "1 66578U 25268X   25343.83335647 -.00071805  00000+0 -12280-2 0  9998", "line2": "2 66578  43.0007 138.0966 0001845 276.9434 178.9001 15.50608431  4209"}}, "geometry": {"type": "Point", "coordinates": [91.63466335157912, -32.7273590746854]}}]}